[
  {
    "COMMENT": "GENERATED VIA SPACETRACK.ORG API",
    "ORIGINATOR": "18 SPCS",
    "NORAD_CAT_ID": "36508",
    "OBJECT_NAME": "CRYOSAT 2",
    "OBJECT_TYPE": "PAYLOAD",
    "CLASSIFICATION_TYPE": "U",
    "INTLDES": "10013A",
    "EPOCH": "2023-04-01 14:44:58",
    "EPOCH_MICROSECONDS": "179264",
    "MEAN_MOTION": "14.51902154",
    "ECCENTRICITY": "0.0004393",
    "INCLINATION": "92.0296",
    "RA_OF_ASC_NODE": "353.8984",
    "ARG_OF_PERICENTER": "22.1574",
    "MEAN_ANOMALY": "337.9823",
    "EPHEMERIS_TYPE": "0",
    "ELEMENT_SET_NO": "999",
    "REV_AT_EPOCH": "68794",
    "BSTAR": "0.00011181",
    "MEAN_MOTION_DOT": "0.00000453",
    "MEAN_MOTION_DDOT": "0",
    "FILE": "3877270",
    "TLE_LINE0": "0 CRYOSAT 2",
    "TLE_LINE1": "1 36508U 10013A   23091.61456226  .00000453  00000-0  11181-3 0  9991",
    "TLE_LINE2": "2 36508  92.0296 353.8984 0004393  22.1574 337.9823 14.51902154687943",
    "OBJECT_ID": "2010-013A",
    "OBJECT_NUMBER": "36508",
    "SEMIMAJOR_AXIS": "7097.580",
    "PERIOD": "99.180",
    "APOGEE": "722.563",
    "PERIGEE": "716.327",
    "DECAYED": "0"
  },
  {
    "COMMENT": "GENERATED VIA SPACETRACK.ORG API",
    "ORIGINATOR": "18 SPCS",
    "NORAD_CAT_ID": "36508",
    "OBJECT_NAME": "CRYOSAT 2",
    "OBJECT_TYPE": "PAYLOAD",
    "CLASSIFICATION_TYPE": "U",
    "INTLDES": "10013A",
    "EPOCH": "2023-04-01 19:42:42",
    "EPOCH_MICROSECONDS": "239808",
    "MEAN_MOTION": "14.51902347",
    "ECCENTRICITY": "0.0004365",
    "INCLINATION": "92.0296",
    "RA_OF_ASC_NODE": "353.9485",
    "ARG_OF_PERICENTER": "21.6469",
    "MEAN_ANOMALY": "338.4922",
    "EPHEMERIS_TYPE": "0",
    "ELEMENT_SET_NO": "999",
    "REV_AT_EPOCH": "68801",
    "BSTAR": "0.00010993",
    "MEAN_MOTION_DOT": "0.00000446",
    "MEAN_MOTION_DDOT": "0",
    "FILE": "3877484",
    "TLE_LINE0": "0 CRYOSAT 2",
    "TLE_LINE1": "1 36508U 10013A   23091.82132222  .00000446  00000-0  10993-3 0  9993",
    "TLE_LINE2": "2 36508  92.0296 353.9485 0004365  21.6469 338.4922 14.51902347688015",
    "OBJECT_ID": "2010-013A",
    "OBJECT_NUMBER": "36508",
    "SEMIMAJOR_AXIS": "7097.579",
    "PERIOD": "99.180",
    "APOGEE": "722.542",
    "PERIGEE": "716.346",
    "DECAYED": "0"
  },
  {
    "COMMENT": "GENERATED VIA SPACETRACK.ORG API",
    "ORIGINATOR": "18 SPCS",
    "NORAD_CAT_ID": "36508",
    "OBJECT_NAME": "CRYOSAT 2",
    "OBJECT_TYPE": "PAYLOAD",
    "CLASSIFICATION_TYPE": "U",
    "INTLDES": "10013A",
    "EPOCH": "2023-04-01 23:01:11",
    "EPOCH_MICROSECONDS": "616672",
    "MEAN_MOTION": "14.5190244",
    "ECCENTRICITY": "0.0004348",
    "INCLINATION": "92.0296",
    "RA_OF_ASC_NODE": "353.9819",
    "ARG_OF_PERICENTER": "21.3062",
    "MEAN_ANOMALY": "338.8325",
    "EPHEMERIS_TYPE": "0",
    "ELEMENT_SET_NO": "999",
    "REV_AT_EPOCH": "68799",
    "BSTAR": "0.00010886",
    "MEAN_MOTION_DOT": "0.00000441",
    "MEAN_MOTION_DDOT": "0",
    "FILE": "3877516",
    "TLE_LINE0": "0 CRYOSAT 2",
    "TLE_LINE1": "1 36508U 10013A   23091.95916223  .00000441  00000-0  10886-3 0  9994",
    "TLE_LINE2": "2 36508  92.0296 353.9819 0004348  21.3062 338.8325 14.51902440687994",
    "OBJECT_ID": "2010-013A",
    "OBJECT_NUMBER": "36508",
    "SEMIMAJOR_AXIS": "7097.579",
    "PERIOD": "99.180",
    "APOGEE": "722.530",
    "PERIGEE": "716.358",
    "DECAYED": "0"
  },
  {
    "COMMENT": "GENERATED VIA SPACETRACK.ORG API",
    "ORIGINATOR": "18 SPCS",
    "NORAD_CAT_ID": "36508",
    "OBJECT_NAME": "CRYOSAT 2",
    "OBJECT_TYPE": "PAYLOAD",
    "CLASSIFICATION_TYPE": "U",
    "INTLDES": "10013A",
    "EPOCH": "2023-04-02 13:54:23",
    "EPOCH_MICROSECONDS": "790528",
    "MEAN_MOTION": "14.51902956",
    "ECCENTRICITY": "0.0004257",
    "INCLINATION": "92.0296",
    "RA_OF_ASC_NODE": "354.1322",
    "ARG_OF_PERICENTER": "19.6569",
    "MEAN_ANOMALY": "340.4802",
    "EPHEMERIS_TYPE": "0",
    "ELEMENT_SET_NO": "999",
    "REV_AT_EPOCH": "68808",
    "BSTAR": "0.00010602",
    "MEAN_MOTION_DOT": "0.0000043",
    "MEAN_MOTION_DDOT": "0",
    "FILE": "3878126",
    "TLE_LINE0": "0 CRYOSAT 2",
    "TLE_LINE1": "1 36508U 10013A   23092.57944202  .00000430  00000-0  10602-3 0  9995",
    "TLE_LINE2": "2 36508  92.0296 354.1322 0004257  19.6569 340.4802 14.51902956688089",
    "OBJECT_ID": "2010-013A",
    "OBJECT_NUMBER": "36508",
    "SEMIMAJOR_AXIS": "7097.577",
    "PERIOD": "99.180",
    "APOGEE": "722.463",
    "PERIGEE": "716.421",
    "DECAYED": "0"
  },
  {
    "COMMENT": "GENERATED VIA SPACETRACK.ORG API",
    "ORIGINATOR": "18 SPCS",
    "NORAD_CAT_ID": "36508",
    "OBJECT_NAME": "CRYOSAT 2",
    "OBJECT_TYPE": "PAYLOAD",
    "CLASSIFICATION_TYPE": "U",
    "INTLDES": "10013A",
    "EPOCH": "2023-04-02 20:31:22",
    "EPOCH_MICROSECONDS": "532160",
    "MEAN_MOTION": "14.51903055",
    "ECCENTRICITY": "0.0004219",
    "INCLINATION": "92.0296",
    "RA_OF_ASC_NODE": "354.199",
    "ARG_OF_PERICENTER": "18.8945",
    "MEAN_ANOMALY": "341.2418",
    "EPHEMERIS_TYPE": "0",
    "ELEMENT_SET_NO": "999",
    "REV_AT_EPOCH": "68816",
    "BSTAR": "0.000099395",
    "MEAN_MOTION_DOT": "0.00000403",
    "MEAN_MOTION_DDOT": "0",
    "FILE": "3878376",
    "TLE_LINE0": "0 CRYOSAT 2",
    "TLE_LINE1": "1 36508U 10013A   23092.85512190  .00000403  00000-0  99395-4 0  9990",
    "TLE_LINE2": "2 36508  92.0296 354.1990 0004219  18.8945 341.2418 14.51903055688169",
    "OBJECT_ID": "2010-013A",
    "OBJECT_NUMBER": "36508",
    "SEMIMAJOR_AXIS": "7097.577",
    "PERIOD": "99.180",
    "APOGEE": "722.436",
    "PERIGEE": "716.447",
    "DECAYED": "0"
  },
  {
    "COMMENT": "GENERATED VIA SPACETRACK.ORG API",
    "ORIGINATOR": "18 SPCS",
    "NORAD_CAT_ID": "36508",
    "OBJECT_NAME": "CRYOSAT 2",
    "OBJECT_TYPE": "PAYLOAD",
    "CLASSIFICATION_TYPE": "U",
    "INTLDES": "10013A",
    "EPOCH": "2023-04-02 22:10:37",
    "EPOCH_MICROSECONDS": "215840",
    "MEAN_MOTION": "14.51903118",
    "ECCENTRICITY": "0.000421",
    "INCLINATION": "92.0296",
    "RA_OF_ASC_NODE": "354.2157",
    "ARG_OF_PERICENTER": "18.6865",
    "MEAN_ANOMALY": "341.4496",
    "EPHEMERIS_TYPE": "0",
    "ELEMENT_SET_NO": "999",
    "REV_AT_EPOCH": "68813",
    "BSTAR": "0.000099664",
    "MEAN_MOTION_DOT": "0.00000404",
    "MEAN_MOTION_DDOT": "0",
    "FILE": "3878419",
    "TLE_LINE0": "0 CRYOSAT 2",
    "TLE_LINE1": "1 36508U 10013A   23092.92404185  .00000404  00000-0  99664-4 0  9992",
    "TLE_LINE2": "2 36508  92.0296 354.2157 0004210  18.6865 341.4496 14.51903118688130",
    "OBJECT_ID": "2010-013A",
    "OBJECT_NUMBER": "36508",
    "SEMIMAJOR_AXIS": "7097.577",
    "PERIOD": "99.180",
    "APOGEE": "722.430",
    "PERIGEE": "716.453",
    "DECAYED": "0"
  },
  {
    "COMMENT": "GENERATED VIA SPACETRACK.ORG API",
    "ORIGINATOR": "18 SPCS",
    "NORAD_CAT_ID": "36508",
    "OBJECT_NAME": "CRYOSAT 2",
    "OBJECT_TYPE": "PAYLOAD",
    "CLASSIFICATION_TYPE": "U",
    "INTLDES": "10013A",
    "EPOCH": "2023-04-03 13:03:49",
    "EPOCH_MICROSECONDS": "362048",
    "MEAN_MOTION": "14.5190355",
    "ECCENTRICITY": "0.0004123",
    "INCLINATION": "92.0295",
    "RA_OF_ASC_NODE": "354.3659",
    "ARG_OF_PERICENTER": "16.9442",
    "MEAN_ANOMALY": "343.1902",
    "EPHEMERIS_TYPE": "0",
    "ELEMENT_SET_NO": "999",
    "REV_AT_EPOCH": "68822",
    "BSTAR": "0.000092617",
    "MEAN_MOTION_DOT": "0.00000376",
    "MEAN_MOTION_DDOT": "0",
    "FILE": "3879059",
    "TLE_LINE0": "0 CRYOSAT 2",
    "TLE_LINE1": "1 36508U 10013A   23093.54432132  .00000376  00000-0  92617-4 0  9993",
    "TLE_LINE2": "2 36508  92.0295 354.3659 0004123  16.9442 343.1902 14.51903550688223",
    "OBJECT_ID": "2010-013A",
    "OBJECT_NUMBER": "36508",
    "SEMIMAJOR_AXIS": "7097.575",
    "PERIOD": "99.180",
    "APOGEE": "722.366",
    "PERIGEE": "716.514",
    "DECAYED": "0"
  },
  {
    "COMMENT": "GENERATED VIA SPACETRACK.ORG API",
    "ORIGINATOR": "18 SPCS",
    "NORAD_CAT_ID": "36508",
    "OBJECT_NAME": "CRYOSAT 2",
    "OBJECT_TYPE": "PAYLOAD",
    "CLASSIFICATION_TYPE": "U",
    "INTLDES": "10013A",
    "EPOCH": "2023-04-03 19:40:48",
    "EPOCH_MICROSECONDS": "84672",
    "MEAN_MOTION": "14.51903834",
    "ECCENTRICITY": "0.0004084",
    "INCLINATION": "92.0295",
    "RA_OF_ASC_NODE": "354.4327",
    "ARG_OF_PERICENTER": "16.2266",
    "MEAN_ANOMALY": "343.9071",
    "EPHEMERIS_TYPE": "0",
    "ELEMENT_SET_NO": "999",
    "REV_AT_EPOCH": "68826",
    "BSTAR": "0.000093439",
    "MEAN_MOTION_DOT": "0.00000379",
    "MEAN_MOTION_DDOT": "0",
    "FILE": "3879321",
    "TLE_LINE0": "0 CRYOSAT 2",
    "TLE_LINE1": "1 36508U 10013A   23093.82000098  .00000379  00000-0  93439-4 0  9992",
    "TLE_LINE2": "2 36508  92.0295 354.4327 0004084  16.2266 343.9071 14.51903834688263",
    "OBJECT_ID": "2010-013A",
    "OBJECT_NUMBER": "36508",
    "SEMIMAJOR_AXIS": "7097.574",
    "PERIOD": "99.180",
    "APOGEE": "722.338",
    "PERIGEE": "716.541",
    "DECAYED": "0"
  },
  {
    "COMMENT": "GENERATED VIA SPACETRACK.ORG API",
    "ORIGINATOR": "18 SPCS",
    "NORAD_CAT_ID": "36508",
    "OBJECT_NAME": "CRYOSAT 2",
    "OBJECT_TYPE": "PAYLOAD",
    "CLASSIFICATION_TYPE": "U",
    "INTLDES": "10013A",
    "EPOCH": "2023-04-04 07:15:30",
    "EPOCH_MICROSECONDS": "844512",
    "MEAN_MOTION": "14.51904274",
    "ECCENTRICITY": "0.0004017",
    "INCLINATION": "92.0294",
    "RA_OF_ASC_NODE": "354.5496",
    "ARG_OF_PERICENTER": "14.8567",
    "MEAN_ANOMALY": "345.2757",
    "EPHEMERIS_TYPE": "0",
    "ELEMENT_SET_NO": "999",
    "REV_AT_EPOCH": "68837",
    "BSTAR": "0.000093925",
    "MEAN_MOTION_DOT": "0.00000381",
    "MEAN_MOTION_DDOT": "0",
    "FILE": "3879655",
    "TLE_LINE0": "0 CRYOSAT 2",
    "TLE_LINE1": "1 36508U 10013A   23094.30244033  .00000381  00000-0  93925-4 0  9998",
    "TLE_LINE2": "2 36508  92.0294 354.5496 0004017  14.8567 345.2757 14.51904274688371",
    "OBJECT_ID": "2010-013A",
    "OBJECT_NUMBER": "36508",
    "SEMIMAJOR_AXIS": "7097.573",
    "PERIOD": "99.180",
    "APOGEE": "722.289",
    "PERIGEE": "716.587",
    "DECAYED": "0"
  }
]